#dP2023 12  9 18  0  0.00000000      96 __u+U IGS20 EXT  IAC
## 2291 583200.00000000   900.00000000 60287 0.7500000000000
+  117   C06C07C08C09C10C11C12C13C14C16C19C20C21C22C23C24C25
+        C26C27C28C29C30C32C33C34C35C36C37C38C39C40C41C42C43
+        C44C45C46E02E03E04E05E07E08E09E10E11E12E13E15E18E19
+        E21E24E25E26E27E30E31E33E34E36G01G02G03G04G05G06G07
+        G09G10G11G12G13G14G15G16G17G18G19G20G21G22G23G24G25
+        G26G27G28G29G30G31G32J02J03J04R01R02R03R04R05R07R08
+        R09R11R12R13R14R15R16R17R18R19R20R21R22R24R25  0  0
++         9 15 11  9 14  9  9 10  9  9  9 10  9  8  9  9  9
++        10  8 10 11  9 10  8  8 11  9 10 11 10 10  9  9  9
++        10  9 10  9  7  8  9  7  8  8  8  9  9  9  8 10 10
++         8  9  8  8  8  8 10  8  8  9  8  8  8  9  7  8  9
++         7  9  9  8  8  8  7  8  8  7  8  9  9  7 10  8  8
++         7  7  7  8  9  9  8  9  8  9  9  9  9  9  9  8  9
++        10 10  9 10  9  8  9  8  9  9 10  9 10  8  0  0  0
%c M  cc GPS ccc cccc cccc cccc cccc ccccc ccccc ccccc ccccc
%c cc cc ccc ccc cccc cccc cccc cccc ccccc ccccc ccccc ccccc
%f  0.0000000  0.000000000  0.00000000000  0.000000000000000
%f  0.0000000  0.000000000  0.00000000000  0.000000000000000
%i    0    0    0    0      0      0      0      0         0
%i    0    0    0    0      0      0      0      0         0
/* IAC                                ULTRA-RAPID PREDICTION
/* S/V CLOCKS ARE ALIGNED TO GNSS TIME                      
/* G:C1WC2W R:C1PC2P E:C1XC5X C:C2IC6I J:C1CC2S             
/* PCV:IGS20_2290 OL/AL:FES2004  NONE     YN ORB:CoN CLK:CoN
*  2023 12 10 12  0  0.00000000
PC06  -8408.523703  40085.320384  -9313.028009    201.130524
PC07  -5284.314937  27495.133601  31638.427255   -452.199446
PC08 -19112.214057  27432.992975 -25832.743307    189.479868
PC09  -2030.300484  41756.727127   2224.477183   -198.990949
PC10   4184.285791  29904.739917  29923.243133    -48.125831
PC11 -12906.082210  10402.383263  22528.617601    299.185661
PC12 -16336.294047 -10923.669294  19857.659967    830.538855
PC13 -12838.578603  28144.875413 -28633.213134    393.901892
PC14 -22213.904867   5420.174278 -15953.583729   -277.239294
PC16  -9289.611524  39330.564760 -11206.175103   -218.813939
PC19  14190.800529 -11170.248859  21298.246308   -954.639904
PC20  26194.540818    128.730171   9660.498953     41.738817
PC21 -23334.536227 -12417.831532   8932.677451   -968.158751
PC22  -6650.722215 -16700.000548  21334.117876   -192.138322
PC23  -4816.991610  21907.653252  16604.657043   -806.247325
PC24 -22366.949939   6988.755043 -15197.125834    678.801793
PC25 -18231.664903  21076.584753   1676.917212    274.878063
PC26 -13365.388516  -9535.477710 -22587.529318   -218.189563
PC27  15023.932281  18998.208425 -13866.450724    240.194470
PC28   6109.846958  27191.926940   1457.433378    181.662852
PC29   7493.852779 -19609.301264 -18387.435952    212.655690
PC30  16569.442348    291.385238 -22452.548831    -10.081353
PC32  23387.206456  12273.273317  -9006.263272   -541.438419
PC33 -14215.858510  11225.839596 -21226.171850   -942.056620
PC34 -16253.778437   1376.821531  22636.165753    321.829644
PC35  -7157.357518 -26956.958365  -1407.600805    483.933356
PC36  19134.076880 -20282.659885   -890.680781    -98.883070
PC37  12588.915670  10431.942054  22617.838865   -918.813328
PC38 -24517.680295  28994.717488 -18490.232614    123.146056
PC39  -9929.116365  37551.314272 -16059.569397     -6.021000
PC40  -9036.999326  21764.973768  35006.574152    -47.285879
PC41   5868.483223  16655.411374 -21559.353219   -873.011755
PC42 -26634.533243  -1166.570031  -8173.260382   -483.490891
PC43  -8202.501837  18876.422929  18830.270715     51.735247
PC44 -15755.807246 -18586.099371  13621.842005    318.530917
PC45   4413.911350 -21663.655135 -17019.324258    -53.695949
PC46  22483.529409  -7948.148343  14446.406486   -106.383970
PE02   5446.279282 -17487.841720 -23253.747868     85.447161
PE03  -4719.057246 -23388.983998  17503.781222    -79.164964
PE04  19689.490123  22094.233293   -457.108830   -276.836090
PE05  12852.043229 -11105.175094  24238.037930   4699.115146
PE07 -23135.059133  -8180.167390 -16552.829566    -92.288916
PE08 -19404.159071 -22325.151689   1031.904712   -190.004864
PE09  23096.905070   8364.264112  16515.465890   -257.882823
PE10  13430.464671   9749.653340 -24509.657585   -585.277633
PE11  17073.402227  -2226.028845 -24080.818612   3259.086144
PE12   8263.243491  18991.062671 -21138.394904   -812.761703
PE13 -16847.714291   1429.003071  24305.244517    -19.667042
PE15  -7905.176296 -19413.817909  20912.719190    -73.964302
PE18 -12687.012369   9814.727268  19010.173439     78.484796
PE19   2476.085802  22471.596973 -19102.381480  -1043.956463
PE21 -23555.612164  13411.349363  11901.133725   -568.178399
PE24  28655.385381   -873.224464   7293.646111   -478.084878
PE25  23799.875529 -13237.945140 -11580.620243     -2.178409
PE26 -15690.403155  21586.403522  12823.403319    305.542255
PE27 -28769.293557   1308.199786  -6879.609404   -220.668436
PE30 -16657.943677 -11695.067499 -21511.453805   -730.445537
PE31  16953.409491  11437.426412  21400.272845    -11.466140
PE33  -5946.027353  28611.958244  -4732.098545      3.933379
PE34   5485.290212 -28590.830404   5322.962071    -82.581323
PE36  15799.619625 -21123.423136 -13424.153081   -155.732559
PG01 -13790.674073  19945.315910  10088.019524    163.786441
PG02 -15075.545000  14724.701416  16542.022271   -517.524266
PG03 -21144.754630  11938.324927 -10773.661127     44.408449
PG04 -10332.772935  11175.271149 -21750.818817    235.716865
PG05  25960.654790  -5563.122209  -1986.092355   -153.586694
PG06   8816.142469  15035.215416 -19939.667403    482.223519
PG07  -4260.380231  25523.693742   5195.722395     -8.291771
PG09    749.914042  19363.783534 -18226.855200     22.450133
PG10 -10983.942101 -12091.158837  21208.432894    -64.745156
PG11  14697.250392   3695.157540 -21786.079328   -495.083941
PG12  22253.958943 -10454.574219 -10231.345279   -455.951984
PG13  19150.719738   7999.052379  16494.028584    604.165606
PG14   6809.543598  14325.036159  21344.883625    266.914031
PG15  16477.367663  -5361.681307  19694.035005    105.516992
PG16 -25824.961368  -1760.631321  -7268.721351   -406.814445
PG17  11440.020258  22720.140787   7818.103974    722.209834
PG18   4076.823841 -25378.493973   6308.933399   -502.470529
PG19  16865.240897  20690.801814  -1961.517005    410.521708
PG20  22418.653529   1575.329040 -13959.753848    397.364748
PG21 -15744.173707  10454.419971  18766.131922    141.945585
PG22  13806.496428  12002.710252  19594.028343     68.598265
PG23   3218.399949 -15581.300708  21250.074734    113.547845
PG24  14832.371303 -15342.243933  15142.327960   -390.283413
PG25  11394.327039 -15942.142364 -18131.890007    480.911242
PG26 -21233.693688  -5542.928852 -15352.818802    210.365489
PG27 -21177.138024 -10068.415659  12609.788337    -81.163616
PG28  -8458.892998 -17262.408164 -18352.074269    -66.458648
PG29   1436.886649 -18806.822144 -18702.903631   -609.867909
PG30   3497.235441  22349.938047  13824.820854   -459.047958
PG31 -13149.107481  -8719.066230 -21527.230394   -226.485179
PG32 -15603.820934 -21231.860216   4331.641823   -594.887142
PJ02 -31036.843103  24340.235199  19952.156023     -0.496864
PJ03 -27672.401485  27535.244252  20956.571543    -11.397525
PJ04 -28134.750005  20127.791176 -18970.532754     73.902706
PR01 -16410.106071   2873.317105 -19316.740417     71.812860
PR02    328.890053  11835.930238 -22542.991314    -22.321612
PR03  16789.503177  14416.115818 -12584.364356     90.653672
PR04  23447.166050   9185.160545   4021.495218    214.628403
PR05  17546.638302  -1029.998979  18479.316752    123.595395
PR07 -17416.069425 -14397.438648  11928.906668     71.023365
PR08 -23541.383304  -8967.473888  -4086.276371    -73.602939
PR09  11228.941988 -17493.217073 -14824.196558    157.943541
PR11 -17245.854990   1433.202514 -18727.092199   -220.000214
PR12 -21309.209512  13897.947092  -1960.714873     34.330833
PR13 -13289.865641  17380.277477  13100.413385    -42.156823
PR14   4558.992564  10384.926341  22853.785646     25.750933
PR15  18124.336810  -2286.986745  17818.088483     84.092815
PR16  21291.354728 -13887.312122   2314.278363     21.418472
PR17   6471.284331  22451.846665 -10267.102100     42.285767
PR18  10351.115517   8728.824066 -21583.787111    116.177570
PR19   9687.381419  -7517.192108 -22358.708392   -257.764120
PR20   2754.056017 -24036.468254  -8127.873087   -104.906258
PR21  -6496.727410 -22135.959053  10860.921582    -59.876595
PR22 -10615.988961  -7981.896882  21811.305086     97.604531
PR24  -1724.654151  24318.259650   7559.405372    -35.366986
PR25 -23555.982521  -9127.989911  -3449.317166    -12.891619
EOF
